COSMOS 1743             
1 16719U 86034A   25321.62626868  .00030107  00000+0  52523-3 0  9992
2 16719  82.5371 190.6396 0006524   0.7309 359.3951 15.50530675162845
SL-14 R/B               
1 16792U 86046B   25321.58898617  .00000754  00000+0  84427-4 0  9998
2 16792  82.4828 186.0651 0021803 236.6880 123.2249 14.85449879109768
SL-14 R/B               
1 16882U 86055B   25321.71653367  .00000939  00000+0  10574-3 0  9990
2 16882  82.5219 231.8821 0018688 347.5924  40.3360 14.85494434102740
AJISAI (EGS)            
1 16908U 86061A   25321.79004646 -.00000110  00000+0 -88127-4 0  9997
2 16908  50.0094  77.4339 0011205   3.1450 167.0281 12.44514144454063
COSMOS 1812             
1 17295U 87003A   25321.47005476  .00091618  00000+0  74502-3 0  9993
2 17295  82.4869 319.2596 0005628 127.9623 232.2148 15.70357993126683
SL-14 R/B               
1 17567U 87024B   25321.66306240  .00000783  00000+0  86772-4 0  9998
2 17567  82.5295 198.0090 0016727 272.4192  87.5110 14.85990280 71495
COSMOS 1833             
1 17589U 87027A   25321.65767804 -.00000143  00000+0 -50794-4 0  9998
2 17589  70.9139 201.5038 0021467   7.0098 353.1319 14.13018877994483
SL-16 R/B               
1 17590U 87027B   25321.81527595 -.00000144  00000+0 -47537-4 0  9991
2 17590  71.0002 152.2384 0007264 285.4923  74.5398 14.17147306999536
SL-14 R/B               
1 17912U 87038B   25321.66787778  .00000859  00000+0  97041-4 0  9991
2 17912  82.5038  42.3112 0019570 170.6211 189.5375 14.85227574 62608
COSMOS 1844             
1 17973U 87041A   25321.81140493  .00000230  00000+0  14454-3 0  9995
2 17973  70.8993 270.1469 0031382 195.0588 164.9603 14.14525861987760
SL-14 R/B               
1 18153U 87055B   25321.66418488  .00000903  00000+0  10144-3 0  9995
2 18153  82.4982  94.6184 0021351  27.6656 332.5691 14.85483580 53305
COSMOS 1867             
1 18187U 87060A   25321.80167140  .00000017  00000+0  44154-4 0  9995
2 18187  65.0102 260.0373 0013676 268.6388  91.3130 14.31480627  3923
