CCSDS_OMM_VERS = 2.0
CREATION_DATE  = 
ORIGINATOR     = 

OBJECT_NAME    = COSMOS 1743
OBJECT_ID      = 1986-034A
CENTER_NAME    = EARTH
REF_FRAME      = TEME
TIME_SYSTEM    = UTC
MEAN_ELEMENT_THEORY = SGP/SGP4

EPOCH          = 2025-11-17T15:01:49.614816
MEAN_MOTION    = 15.50530675
ECCENTRICITY   = .00065242
INCLINATION    = 82.5371
RA_OF_ASC_NODE = 190.6396
ARG_OF_PERICENTER = 0.7309
MEAN_ANOMALY   = 359.3951

EPHEMERIS_TYPE = 0
CLASSIFICATION_TYPE = U
NORAD_CAT_ID   = 16719
ELEMENT_SET_NO = 999
REV_AT_EPOCH   = 16284
BSTAR          = .52523481E-3
MEAN_MOTION_DOT = .30107E-3
MEAN_MOTION_DDOT = 0

CCSDS_OMM_VERS = 2.0
CREATION_DATE  = 
ORIGINATOR     = 

OBJECT_NAME    = SL-14 R/B
OBJECT_ID      = 1986-046B
CENTER_NAME    = EARTH
REF_FRAME      = TEME
TIME_SYSTEM    = UTC
MEAN_ELEMENT_THEORY = SGP/SGP4

EPOCH          = 2025-11-17T14:08:08.405088
MEAN_MOTION    = 14.85449879
ECCENTRICITY   = .00218029
INCLINATION    = 82.4828
RA_OF_ASC_NODE = 186.0651
ARG_OF_PERICENTER = 236.6880
MEAN_ANOMALY   = 123.2249

EPHEMERIS_TYPE = 0
CLASSIFICATION_TYPE = U
NORAD_CAT_ID   = 16792
ELEMENT_SET_NO = 999
REV_AT_EPOCH   = 10976
BSTAR          = .84427127E-4
MEAN_MOTION_DOT = .754E-5
MEAN_MOTION_DDOT = 0

CCSDS_OMM_VERS = 2.0
CREATION_DATE  = 
ORIGINATOR     = 

OBJECT_NAME    = SL-14 R/B
OBJECT_ID      = 1986-055B
CENTER_NAME    = EARTH
REF_FRAME      = TEME
TIME_SYSTEM    = UTC
MEAN_ELEMENT_THEORY = SGP/SGP4

EPOCH          = 2025-11-17T17:11:48.509088
MEAN_MOTION    = 14.85494434
ECCENTRICITY   = .0018688
INCLINATION    = 82.5219
RA_OF_ASC_NODE = 231.8821
ARG_OF_PERICENTER = 347.5924
MEAN_ANOMALY   = 40.3360

EPHEMERIS_TYPE = 0
CLASSIFICATION_TYPE = U
NORAD_CAT_ID   = 16882
ELEMENT_SET_NO = 999
REV_AT_EPOCH   = 10274
BSTAR          = .10574E-3
MEAN_MOTION_DOT = .939E-5
MEAN_MOTION_DDOT = 0

CCSDS_OMM_VERS = 2.0
CREATION_DATE  = 
ORIGINATOR     = 

OBJECT_NAME    = AJISAI (EGS)
OBJECT_ID      = 1986-061A
CENTER_NAME    = EARTH
REF_FRAME      = TEME
TIME_SYSTEM    = UTC
MEAN_ELEMENT_THEORY = SGP/SGP4

EPOCH          = 2025-11-17T18:57:40.014144
MEAN_MOTION    = 12.44514144
ECCENTRICITY   = .0011205
INCLINATION    = 50.0094
RA_OF_ASC_NODE = 77.4339
ARG_OF_PERICENTER = 3.1450
MEAN_ANOMALY   = 167.0281

EPHEMERIS_TYPE = 0
CLASSIFICATION_TYPE = U
NORAD_CAT_ID   = 16908
ELEMENT_SET_NO = 999
REV_AT_EPOCH   = 45406
BSTAR          = -.88127E-4
MEAN_MOTION_DOT = -.11E-5
MEAN_MOTION_DDOT = 0

CCSDS_OMM_VERS = 2.0
CREATION_DATE  = 
ORIGINATOR     = 

OBJECT_NAME    = COSMOS 1812
OBJECT_ID      = 1987-003A
CENTER_NAME    = EARTH
REF_FRAME      = TEME
TIME_SYSTEM    = UTC
MEAN_ELEMENT_THEORY = SGP/SGP4

EPOCH          = 2025-11-17T11:16:52.731264
MEAN_MOTION    = 15.70357993
ECCENTRICITY   = .00056281
INCLINATION    = 82.4869
RA_OF_ASC_NODE = 319.2596
ARG_OF_PERICENTER = 127.9623
MEAN_ANOMALY   = 232.2148

EPHEMERIS_TYPE = 0
CLASSIFICATION_TYPE = U
NORAD_CAT_ID   = 17295
ELEMENT_SET_NO = 999
REV_AT_EPOCH   = 12668
BSTAR          = .74501598E-3
MEAN_MOTION_DOT = .91618E-3
MEAN_MOTION_DDOT = 0

CCSDS_OMM_VERS = 2.0
CREATION_DATE  = 
ORIGINATOR     = 

OBJECT_NAME    = SL-14 R/B
OBJECT_ID      = 1987-024B
CENTER_NAME    = EARTH
REF_FRAME      = TEME
TIME_SYSTEM    = UTC
MEAN_ELEMENT_THEORY = SGP/SGP4

EPOCH          = 2025-11-17T15:54:48.591360
MEAN_MOTION    = 14.85990280
ECCENTRICITY   = .0016727
INCLINATION    = 82.5295
RA_OF_ASC_NODE = 198.0090
ARG_OF_PERICENTER = 272.4192
MEAN_ANOMALY   = 87.5110

EPHEMERIS_TYPE = 0
CLASSIFICATION_TYPE = U
NORAD_CAT_ID   = 17567
ELEMENT_SET_NO = 999
REV_AT_EPOCH   = 7149
BSTAR          = .86772E-4
MEAN_MOTION_DOT = .783E-5
MEAN_MOTION_DDOT = 0

CCSDS_OMM_VERS = 2.0
CREATION_DATE  = 
ORIGINATOR     = 

OBJECT_NAME    = COSMOS 1833
OBJECT_ID      = 1987-027A
CENTER_NAME    = EARTH
REF_FRAME      = TEME
TIME_SYSTEM    = UTC
MEAN_ELEMENT_THEORY = SGP/SGP4

EPOCH          = 2025-11-17T15:47:03.382656
MEAN_MOTION    = 14.13018877
ECCENTRICITY   = .0021467
INCLINATION    = 70.9139
RA_OF_ASC_NODE = 201.5038
ARG_OF_PERICENTER = 7.0098
MEAN_ANOMALY   = 353.1319

EPHEMERIS_TYPE = 0
CLASSIFICATION_TYPE = U
NORAD_CAT_ID   = 17589
ELEMENT_SET_NO = 999
REV_AT_EPOCH   = 99448
BSTAR          = -.50794E-4
MEAN_MOTION_DOT = -.143E-5
MEAN_MOTION_DDOT = 0

CCSDS_OMM_VERS = 2.0
CREATION_DATE  = 
ORIGINATOR     = 

OBJECT_NAME    = SL-16 R/B
OBJECT_ID      = 1987-027B
CENTER_NAME    = EARTH
REF_FRAME      = TEME
TIME_SYSTEM    = UTC
MEAN_ELEMENT_THEORY = SGP/SGP4

EPOCH          = 2025-11-17T19:33:59.842080
MEAN_MOTION    = 14.17147306
ECCENTRICITY   = .0007264
INCLINATION    = 71.0002
RA_OF_ASC_NODE = 152.2384
ARG_OF_PERICENTER = 285.4923
MEAN_ANOMALY   = 74.5398

EPHEMERIS_TYPE = 0
CLASSIFICATION_TYPE = U
NORAD_CAT_ID   = 17590
ELEMENT_SET_NO = 999
REV_AT_EPOCH   = 99953
BSTAR          = -.47537E-4
MEAN_MOTION_DOT = -.144E-5
MEAN_MOTION_DDOT = 0

CCSDS_OMM_VERS = 2.0
CREATION_DATE  = 
ORIGINATOR     = 

OBJECT_NAME    = SL-14 R/B
OBJECT_ID      = 1987-038B
CENTER_NAME    = EARTH
REF_FRAME      = TEME
TIME_SYSTEM    = UTC
MEAN_ELEMENT_THEORY = SGP/SGP4

EPOCH          = 2025-11-17T16:01:44.640192
MEAN_MOTION    = 14.85227574
ECCENTRICITY   = .001957
INCLINATION    = 82.5038
RA_OF_ASC_NODE = 42.3112
ARG_OF_PERICENTER = 170.6211
MEAN_ANOMALY   = 189.5375

EPHEMERIS_TYPE = 0
CLASSIFICATION_TYPE = U
NORAD_CAT_ID   = 17912
ELEMENT_SET_NO = 999
REV_AT_EPOCH   = 6260
BSTAR          = .97041E-4
MEAN_MOTION_DOT = .859E-5
MEAN_MOTION_DDOT = 0

CCSDS_OMM_VERS = 2.0
CREATION_DATE  = 
ORIGINATOR     = 

OBJECT_NAME    = COSMOS 1844
OBJECT_ID      = 1987-041A
CENTER_NAME    = EARTH
REF_FRAME      = TEME
TIME_SYSTEM    = UTC
MEAN_ELEMENT_THEORY = SGP/SGP4

EPOCH          = 2025-11-17T19:28:25.385952
MEAN_MOTION    = 14.14525861
ECCENTRICITY   = .0031382
INCLINATION    = 70.8993
RA_OF_ASC_NODE = 270.1469
ARG_OF_PERICENTER = 195.0588
MEAN_ANOMALY   = 164.9603

EPHEMERIS_TYPE = 0
CLASSIFICATION_TYPE = U
NORAD_CAT_ID   = 17973
ELEMENT_SET_NO = 999
REV_AT_EPOCH   = 98776
BSTAR          = .14454E-3
MEAN_MOTION_DOT = .23E-5
MEAN_MOTION_DDOT = 0

CCSDS_OMM_VERS = 2.0
CREATION_DATE  = 
ORIGINATOR     = 

OBJECT_NAME    = SL-14 R/B
OBJECT_ID      = 1987-055B
CENTER_NAME    = EARTH
REF_FRAME      = TEME
TIME_SYSTEM    = UTC
MEAN_ELEMENT_THEORY = SGP/SGP4

EPOCH          = 2025-11-17T15:56:25.573632
MEAN_MOTION    = 14.85483580
ECCENTRICITY   = .0021351
INCLINATION    = 82.4982
RA_OF_ASC_NODE = 94.6184
ARG_OF_PERICENTER = 27.6656
MEAN_ANOMALY   = 332.5691

EPHEMERIS_TYPE = 0
CLASSIFICATION_TYPE = U
NORAD_CAT_ID   = 18153
ELEMENT_SET_NO = 999
REV_AT_EPOCH   = 5330
BSTAR          = .10144E-3
MEAN_MOTION_DOT = .903E-5
MEAN_MOTION_DDOT = 0

CCSDS_OMM_VERS = 2.0
CREATION_DATE  = 
ORIGINATOR     = 

OBJECT_NAME    = COSMOS 1867
OBJECT_ID      = 1987-060A
CENTER_NAME    = EARTH
REF_FRAME      = TEME
TIME_SYSTEM    = UTC
MEAN_ELEMENT_THEORY = SGP/SGP4

EPOCH          = 2025-11-17T19:14:24.408960
MEAN_MOTION    = 14.31480627
ECCENTRICITY   = .0013676
INCLINATION    = 65.0102
RA_OF_ASC_NODE = 260.0373
ARG_OF_PERICENTER = 268.6388
MEAN_ANOMALY   = 91.3130

EPHEMERIS_TYPE = 0
CLASSIFICATION_TYPE = U
NORAD_CAT_ID   = 18187
ELEMENT_SET_NO = 999
REV_AT_EPOCH   = 392
BSTAR          = .44154E-4
MEAN_MOTION_DOT = .17E-6
MEAN_MOTION_DDOT = 0

